{"type":"FeatureCollection","features":[{"type":"Feature","properties":{"name":"다대2동작은도서관","name:en":"Dadae 2 Dong Jakeun Library","amenity":"library","osmType":"node","osmId":"368655432","districtCode":"26380","districtName":"사하구"},"geometry":{"type":"Point","coordinates":[128.9822889,35.0633847]}},{"type":"Feature","properties":{"name":"부산광역시동구도서관","name:en":"Busandonggu Library","amenity":"library","osmType":"node","osmId":"368655437","districtCode":"26170","districtName":"동구"},"geometry":{"type":"Point","coordinates":[129.0524148,35.1380187]}},{"type":"Feature","properties":{"name":"동아대학교도서관","name:en":"Donga University Library","amenity":"library","osmType":"node","osmId":"368655450","districtCode":"26380","districtName":"사하구"},"geometry":{"type":"Point","coordinates":[128.9664218,35.1141861]}},{"type":"Feature","properties":{"name":"새마을문고사하구지부문고","name:en":"Sae Village Mungo Sahagujibu Library","amenity":"library","osmType":"node","osmId":"368655452","districtCode":"26380","districtName":"사하구"},"geometry":{"type":"Point","coordinates":[129.007632,35.090322]}},{"type":"Feature","properties":{"name":"사하독서문화원괴정문고","name:en":"Sahadokseo Cultural Center Goejeong Library","amenity":"library","osmType":"node","osmId":"368655462","districtCode":"26380","districtName":"사하구"},"geometry":{"type":"Point","coordinates":[128.99042,35.094638]}},{"type":"Feature","properties":{"name":"새사랑문고","name:en":"Saesarang Library","amenity":"library","osmType":"node","osmId":"368655464","districtCode":"26380","districtName":"사하구"},"geometry":{"type":"Point","coordinates":[128.993366,35.095128]}},{"type":"Feature","properties":{"name":"성신열린문고","name:en":"Seongsinyeollin Library","amenity":"library","osmType":"node","osmId":"368655472","districtCode":"26380","districtName":"사하구"},"geometry":{"type":"Point","coordinates":[128.972495,35.104583]}},{"type":"Feature","properties":{"name":"꽃동산어린이문고","name:en":"Ggoctongsan Children Library","amenity":"library","osmType":"node","osmId":"368655478","districtCode":"26380","districtName":"사하구"},"geometry":{"type":"Point","coordinates":[128.965906,35.050094]}},{"type":"Feature","properties":{"name":"21c열린문고","name:en":"21c Yeollin Library","amenity":"library","osmType":"node","osmId":"368655484","districtCode":"26140","districtName":"서구"},"geometry":{"type":"Point","coordinates":[129.0209726,35.0980345]}},{"type":"Feature","properties":{"name":"고려독서문화원문고","name:en":"Goryeodokseo Cultural Center Library","amenity":"library","osmType":"node","osmId":"368655500","districtCode":"26200","districtName":"영도구"},"geometry":{"type":"Point","coordinates":[129.066329,35.085898]}},{"type":"Feature","properties":{"name":"종로문고","name:en":"Jongno Library","amenity":"library","osmType":"node","osmId":"368655506","districtCode":"26230","districtName":"부산진구"},"geometry":{"type":"Point","coordinates":[129.034638,35.152126]}},{"type":"Feature","properties":{"name":"파랑새문고","name:en":"Parangsae Library","amenity":"library","osmType":"node","osmId":"368655508","districtCode":"26230","districtName":"부산진구"},"geometry":{"type":"Point","coordinates":[129.017623,35.153749]}},{"type":"Feature","properties":{"name":"한울독서문화원문고","name:en":"Hanuldokseo Cultural Center Library","amenity":"library","osmType":"node","osmId":"368655515","districtCode":"26230","districtName":"부산진구"},"geometry":{"type":"Point","coordinates":[129.034729,35.164512]}},{"type":"Feature","properties":{"name":"훈민정음독서문고","name:en":"Hunminjeongeumdokseo Library","amenity":"library","osmType":"node","osmId":"368655519","districtCode":"26230","districtName":"부산진구"},"geometry":{"type":"Point","coordinates":[129.036597,35.167182]}},{"type":"Feature","properties":{"name":"한국독서대학문고","name:en":"Korea Dokseo University Library","amenity":"library","osmType":"node","osmId":"368655525","districtCode":"26230","districtName":"부산진구"},"geometry":{"type":"Point","coordinates":[129.047881,35.165408]}},{"type":"Feature","properties":{"name":"열린문고","name:en":"Yeollin Library","amenity":"library","osmType":"node","osmId":"368655530","districtCode":"26230","districtName":"부산진구"},"geometry":{"type":"Point","coordinates":[129.0680163,35.1637968]}},{"type":"Feature","properties":{"name":"반여1동새마을문고","name:en":"Banyeo 1 Dongsae Village Library","amenity":"library","osmType":"node","osmId":"368655538","districtCode":"26350","districtName":"해운대구"},"geometry":{"type":"Point","coordinates":[129.1191,35.200991]}},{"type":"Feature","properties":{"name":"장산푸른초장문고","name:en":"Jangsanpureunchojang Library","amenity":"library","osmType":"node","osmId":"368655545","districtCode":"26350","districtName":"해운대구"},"geometry":{"type":"Point","coordinates":[129.130119,35.194894]}},{"type":"Feature","properties":{"name":"반여3동새마을문고","name:en":"Banyeo 3 Dongsae Village Library","amenity":"library","osmType":"node","osmId":"368655547","districtCode":"26350","districtName":"해운대구"},"geometry":{"type":"Point","coordinates":[129.1336564,35.2006997]}},{"type":"Feature","properties":{"name":"송정동새마을문고","name:en":"Songjeongdongsae Village Library","amenity":"library","osmType":"node","osmId":"368655558","districtCode":"26350","districtName":"해운대구"},"geometry":{"type":"Point","coordinates":[129.203802,35.183393]}},{"type":"Feature","properties":{"name":"우2동새마을문고","name:en":"U 2 Dongsae Village Library","amenity":"library","osmType":"node","osmId":"368655560","districtCode":"26350","districtName":"해운대구"},"geometry":{"type":"Point","coordinates":[129.1392838,35.1710881]}},{"type":"Feature","properties":{"name":"좌1동 새마을문고 문고","name:en":"Jwa 1 Dong Sae Village Mungo Library","amenity":"library","osmType":"node","osmId":"368655572","districtCode":"26350","districtName":"해운대구"},"geometry":{"type":"Point","coordinates":[129.1743481,35.1709783]}},{"type":"Feature","properties":{"name":"좌2동새마을문고","name:en":"Jwa 2 Dongsae Village Library","amenity":"library","osmType":"node","osmId":"368655583","districtCode":"26350","districtName":"해운대구"},"geometry":{"type":"Point","coordinates":[129.182729,35.168889]}},{"type":"Feature","properties":{"name":"나눔터문고","name:en":"Nanumteo Library","amenity":"library","osmType":"node","osmId":"368655585","districtCode":"26350","districtName":"해운대구"},"geometry":{"type":"Point","coordinates":[129.184311,35.165168]}},{"type":"Feature","properties":{"name":"좌4동새마을문고","amenity":"library","osmType":"node","osmId":"368655592","districtCode":"26350","districtName":"해운대구"},"geometry":{"type":"Point","coordinates":[129.1762011,35.1778878]}},{"type":"Feature","properties":{"name":"중1동새마을문고","name:en":"Jung 1 Dongsae Village Library","amenity":"library","osmType":"node","osmId":"368655593","districtCode":"26350","districtName":"해운대구"},"geometry":{"type":"Point","coordinates":[129.164334,35.162279]}},{"type":"Feature","properties":{"name":"중2동새마을문고","name:en":"Jung 2 Dongsae Village Library","amenity":"library","osmType":"node","osmId":"368655603","districtCode":"26350","districtName":"해운대구"},"geometry":{"type":"Point","coordinates":[129.1743088,35.1615625]}},{"type":"Feature","properties":{"name":"송탄칠곡문고","name:en":"Songtanchilgok Library","amenity":"library","osmType":"node","osmId":"368655604","districtCode":"26170","districtName":"동구"},"geometry":{"type":"Point","coordinates":[129.053307,35.140958]}},{"type":"Feature","properties":{"name":"부산광역시립연산도서관","name:en":"Busan Yeonsan Library","amenity":"library","osmType":"node","osmId":"368655615","districtCode":"26470","districtName":"연제구"},"geometry":{"type":"Point","coordinates":[129.1040294,35.1857618]}},{"type":"Feature","properties":{"name":"한국해양대학교도서관","name:en":"Korea Haeyang University Library","amenity":"library","osmType":"node","osmId":"368655640","districtCode":"26200","districtName":"영도구"},"geometry":{"type":"Point","coordinates":[129.0872712,35.0760519]}},{"type":"Feature","properties":{"name":"제일성씨족보도서관","name:en":"Jeilseongssijokbo Library","amenity":"library","osmType":"node","osmId":"368655657","districtCode":"26110","districtName":"중구"},"geometry":{"type":"Point","coordinates":[129.035524,35.097344]}},{"type":"Feature","properties":{"name":"해운대구새마을이동도서관","name:en":"Haeundaegusae Village Idong Library","amenity":"library","osmType":"node","osmId":"368655664","districtCode":"26350","districtName":"해운대구"},"geometry":{"type":"Point","coordinates":[129.169149,35.163486]}},{"type":"Feature","properties":{"name":"열린문고","name:en":"Yeollin Library","amenity":"library","osmType":"node","osmId":"368661762","districtCode":"26710","districtName":"기장군"},"geometry":{"type":"Point","coordinates":[129.215028,35.236665]}},{"type":"Feature","properties":{"name":"한우리문고","name:en":"Hanuri Library","amenity":"library","osmType":"node","osmId":"368661765","districtCode":"26710","districtName":"기장군"},"geometry":{"type":"Point","coordinates":[129.215582,35.247287]}},{"type":"Feature","properties":{"name":"맨발동무 도서관","amenity":"library","osmType":"node","osmId":"4008823470","districtCode":"26320","districtName":"북구"},"geometry":{"type":"Point","coordinates":[129.0203035,35.2438521]}},{"type":"Feature","properties":{"name":"미래도서관","name:en":"busan future libray","amenity":"library","osmType":"node","osmId":"4186705471","districtCode":"26470","districtName":"연제구"},"geometry":{"type":"Point","coordinates":[129.0750447,35.1800394]}},{"type":"Feature","properties":{"name":"부산광역시립 반송도서관","amenity":"library","osmType":"node","osmId":"4574628492","districtCode":"26350","districtName":"해운대구"},"geometry":{"type":"Point","coordinates":[129.1483343,35.2250871]}},{"type":"Feature","properties":{"name":"작은수풀도서관","amenity":"library","osmType":"node","osmId":"4634019860","districtCode":"26380","districtName":"사하구"},"geometry":{"type":"Point","coordinates":[128.9788489,35.0777569]}},{"type":"Feature","properties":{"name":"중앙도서관","name:en":"Central Library of Busan University of Foreign Studies","amenity":"library","osmType":"node","osmId":"4654980490","districtCode":"26410","districtName":"금정구"},"geometry":{"type":"Point","coordinates":[129.0778159,35.2673235]}},{"type":"Feature","properties":{"name":"도서관","amenity":"library","osmType":"node","osmId":"4655135878","districtCode":"26230","districtName":"부산진구"},"geometry":{"type":"Point","coordinates":[129.0724602,35.1649241]}},{"type":"Feature","properties":{"amenity":"library","osmType":"node","osmId":"4673862349","districtCode":"26410","districtName":"금정구"},"geometry":{"type":"Point","coordinates":[129.0813596,35.2357847]}},{"type":"Feature","properties":{"name:en":"Busan English Library","amenity":"library","osmType":"node","osmId":"5880830586","districtCode":"26230","districtName":"부산진구"},"geometry":{"type":"Point","coordinates":[129.0513172,35.1572672]}},{"type":"Feature","properties":{"name":"도서관","name:en":"Korea Institute of Maritime and Fisheries Technology Library","amenity":"library","operator":"한국해양수산연수","wheelchair":"yes","osmType":"node","osmId":"6145335537","districtCode":"26200","districtName":"영도구"},"geometry":{"type":"Point","coordinates":[129.0774018,35.0779319]}},{"type":"Feature","properties":{"name":"까치마을 작은도서관","amenity":"library","osmType":"node","osmId":"6469072237","districtCode":"26380","districtName":"사하구"},"geometry":{"type":"Point","coordinates":[129.0092213,35.1049519]}},{"type":"Feature","properties":{"name":"두산위브포세이돈도서관","amenity":"library","osmType":"node","osmId":"6762965285","districtCode":"26440","districtName":"강서구"},"geometry":{"type":"Point","coordinates":[128.8977975,35.0833887]}},{"type":"Feature","properties":{"name":"회화나무 작은도서관","amenity":"library","osmType":"node","osmId":"7161973544","districtCode":"26380","districtName":"사하구"},"geometry":{"type":"Point","coordinates":[128.9915006,35.0939606]}},{"type":"Feature","properties":{"name":"글마루작은도서관","amenity":"library","osmType":"node","osmId":"7922981586","districtCode":"26110","districtName":"중구"},"geometry":{"type":"Point","coordinates":[129.0317357,35.1127281]}},{"type":"Feature","properties":{"name":"솔밭작은도서관","amenity":"library","operator":"부산광역시 북구청","osmType":"node","osmId":"8451696859","districtCode":"26320","districtName":"북구"},"geometry":{"type":"Point","coordinates":[129.0157655,35.2372672]}},{"type":"Feature","properties":{"name":"Art Library","amenity":"library","osmType":"node","osmId":"9669702347","districtCode":"26500","districtName":"수영구"},"geometry":{"type":"Point","coordinates":[129.1148763,35.1767425]}},{"type":"Feature","properties":{"name":"교리도서관","amenity":"library","osmType":"node","osmId":"9803056821","districtCode":"26710","districtName":"기장군"},"geometry":{"type":"Point","coordinates":[129.2154414,35.2552254]}},{"type":"Feature","properties":{"name":"도서관","amenity":"library","osmType":"node","osmId":"10049084634","districtCode":"26290","districtName":"남구"},"geometry":{"type":"Point","coordinates":[129.1045392,35.134415]}},{"type":"Feature","properties":{"name":"해운대인문학도서관","amenity":"library","osmType":"node","osmId":"10156134520","districtCode":"26350","districtName":"해운대구"},"geometry":{"type":"Point","coordinates":[129.1262004,35.2022492]}},{"type":"Feature","properties":{"name":"지사도서관","amenity":"library","operator":"강서구청","osmType":"node","osmId":"12407124109","districtCode":"26440","districtName":"강서구"},"geometry":{"type":"Point","coordinates":[128.831262,35.1509927]}},{"type":"Feature","properties":{"name":"국립해양박물관 해양도서관","amenity":"library","osmType":"node","osmId":"12686934292","districtCode":"26200","districtName":"영도구"},"geometry":{"type":"Point","coordinates":[129.080118,35.0786868]}},{"type":"Feature","properties":{"name":"부산광역시립해운대도서관 우동분관","amenity":"library","operator":"부산광역시","osmType":"node","osmId":"12785458254","districtCode":"26350","districtName":"해운대구"},"geometry":{"type":"Point","coordinates":[129.1556522,35.168822]}},{"type":"Feature","properties":{"name":"해빛 작은도서관","amenity":"library","osmType":"node","osmId":"12963541984","districtCode":"26710","districtName":"기장군"},"geometry":{"type":"Point","coordinates":[129.2183959,35.260428]}},{"type":"Feature","properties":{"name":"동아대학교 부민도서관","amenity":"library","osmType":"node","osmId":"13294595093","districtCode":"26140","districtName":"서구"},"geometry":{"type":"Point","coordinates":[129.0193559,35.1056055]}}]}