{"type": "FeatureCollection", "features": [{"type": "Feature", "geometry": {"type": "Point", "coordinates": [128.9641, 35.04867]}, "properties": {"name": "다대포해수욕장역", "address": "부산광역시 사하구 다대로 지하 692", "line": "부산도시철도 1호선", "stationCode": "95", "date": "2021-02-26"}}, {"type": "Feature", "geometry": {"type": "Point", "coordinates": [128.9713, 35.05782]}, "properties": {"name": "다대포항역역", "address": "부산광역시 사하구 다대로 지하 548", "line": "부산도시철도 1호선", "stationCode": "96", "date": "2021-02-26"}}, {"type": "Feature", "geometry": {"type": "Point", "coordinates": [128.979873, 35.065265]}, "properties": {"name": "낫개역역", "address": "부산광역시 사하구 다대로 지하 422", "line": "부산도시철도 1호선", "stationCode": "97", "date": "2021-02-26"}}, {"type": "Feature", "geometry": {"type": "Point", "coordinates": [128.977041, 35.074433]}, "properties": {"name": "신장림역역", "address": "부산광역시 사하구 다대로 지하 310", "line": "부산도시철도 1호선", "stationCode": "98", "date": "2021-02-26"}}, {"type": "Feature", "geometry": {"type": "Point", "coordinates": [128.9775, 35.08109]}, "properties": {"name": "장림역역", "address": "부산광역시 사하구 다대로 지하 230", "line": "부산도시철도 1호선", "stationCode": "99", "date": "2021-02-26"}}, {"type": "Feature", "geometry": {"type": "Point", "coordinates": [128.9742, 35.0899]}, "properties": {"name": "동매역역", "address": "부산광역시 사하구 신산로 지하 168", "line": "부산도시철도 1호선", "stationCode": "100", "date": "2021-02-26"}}, {"type": "Feature", "geometry": {"type": "Point", "coordinates": [128.960564, 35.095179]}, "properties": {"name": "신평역역", "address": "부산광역시 사하구 하신번영로 140", "line": "부산도시철도 1호선", "stationCode": "101", "date": "2021-02-26"}}, {"type": "Feature", "geometry": {"type": "Point", "coordinates": [128.966803, 35.10618]}, "properties": {"name": "하단역역", "address": "부산광역시 사하구 낙동남로 지하 1415", "line": "부산도시철도 1호선", "stationCode": "102", "date": "2021-02-26"}}, {"type": "Feature", "geometry": {"type": "Point", "coordinates": [128.973846, 35.103532]}, "properties": {"name": "당리역역", "address": "부산광역시 사하구 낙동대로 지하 405", "line": "부산도시철도 1호선", "stationCode": "103", "date": "2021-02-26"}}, {"type": "Feature", "geometry": {"type": "Point", "coordinates": [128.9831, 35.099847]}, "properties": {"name": "사하역역", "address": "부산광역시 사하구 낙동대로 지하 309", "line": "부산도시철도 1호선", "stationCode": "104", "date": "2021-02-26"}}, {"type": "Feature", "geometry": {"type": "Point", "coordinates": [128.992144, 35.099816]}, "properties": {"name": "괴정역역", "address": "부산광역시 사하구 낙동대로 지하 221", "line": "부산도시철도 1호선", "stationCode": "105", "date": "2021-02-26"}}, {"type": "Feature", "geometry": {"type": "Point", "coordinates": [128.999936, 35.103126]}, "properties": {"name": "대티역역", "address": "부산광역시 사하구 낙동대로 지하 141", "line": "부산도시철도 1호선", "stationCode": "106", "date": "2021-02-26"}}, {"type": "Feature", "geometry": {"type": "Point", "coordinates": [129.012178, 35.110937]}, "properties": {"name": "서대신역역", "address": "부산광역시 서구 대영로 지하 1", "line": "부산도시철도 1호선", "stationCode": "107", "date": "2021-02-26"}}, {"type": "Feature", "geometry": {"type": "Point", "coordinates": [129.017684, 35.110452]}, "properties": {"name": "동대신역역", "address": "부산광역시 서구 구덕로 지하 290", "line": "부산도시철도 1호선", "stationCode": "108", "date": "2021-02-26"}}, {"type": "Feature", "geometry": {"type": "Point", "coordinates": [129.019776, 35.100727]}, "properties": {"name": "토성역역", "address": "부산광역시 서구 구덕로 지하 170", "line": "부산도시철도 1호선", "stationCode": "109", "date": "2021-02-26"}}, {"type": "Feature", "geometry": {"type": "Point", "coordinates": [129.02667, 35.097372]}, "properties": {"name": "자갈치역역", "address": "부산광역시 중구 구덕로 지하 80", "line": "부산도시철도 1호선", "stationCode": "110", "date": "2021-02-26"}}, {"type": "Feature", "geometry": {"type": "Point", "coordinates": [129.034869, 35.097953]}, "properties": {"name": "남포역역", "address": "부산광역시 중구 구덕로 지하 12", "line": "부산도시철도 1호선", "stationCode": "111", "date": "2021-02-26"}}, {"type": "Feature", "geometry": {"type": "Point", "coordinates": [129.036371, 35.103837]}, "properties": {"name": "중앙역역", "address": "부산광역시 중구 중앙대로 지하 83", "line": "부산도시철도 1호선", "stationCode": "112", "date": "2021-02-26"}}, {"type": "Feature", "geometry": {"type": "Point", "coordinates": [129.0397, 35.115224]}, "properties": {"name": "부산역역", "address": "부산광역시 동구 중앙대로 지하 200", "line": "부산도시철도 1호선", "stationCode": "113", "date": "2021-02-26"}}, {"type": "Feature", "geometry": {"type": "Point", "coordinates": [129.043039, 35.121168]}, "properties": {"name": "초량역역", "address": "부산광역시 동구 중앙대로 지하 264", "line": "부산도시철도 1호선", "stationCode": "114", "date": "2021-02-26"}}, {"type": "Feature", "geometry": {"type": "Point", "coordinates": [129.047894, 35.127787]}, "properties": {"name": "부산진역역", "address": "부산광역시 동구 중앙대로 지하 350", "line": "부산도시철도 1호선", "stationCode": "115", "date": "2021-02-26"}}, {"type": "Feature", "geometry": {"type": "Point", "coordinates": [129.054455, 35.134361]}, "properties": {"name": "좌천역역", "address": "부산광역시 동구 중앙대로 지하 446", "line": "부산도시철도 1호선", "stationCode": "116", "date": "2021-02-26"}}, {"type": "Feature", "geometry": {"type": "Point", "coordinates": [129.059352, 35.140952]}, "properties": {"name": "범일역역", "address": "부산광역시 동구 범일로 지하 108", "line": "부산도시철도 1호선", "stationCode": "117", "date": "2021-02-26"}}, {"type": "Feature", "geometry": {"type": "Point", "coordinates": [129.059261, 35.1474]}, "properties": {"name": "범내골역역", "address": "부산광역시 부산진구 중앙대로 지하 612", "line": "부산도시철도 1호선", "stationCode": "118", "date": "2021-02-26"}}, {"type": "Feature", "geometry": {"type": "Point", "coordinates": [129.059556, 35.158282]}, "properties": {"name": "서면역(1호선)역", "address": "부산광역시 부산진구 중앙대로 지하 730", "line": "부산도시철도 1호선", "stationCode": "119", "date": "2021-02-26"}}, {"type": "Feature", "geometry": {"type": "Point", "coordinates": [129.062952, 35.162587]}, "properties": {"name": "부전역역", "address": "부산광역시 부산진구 중앙대로 지하 786", "line": "부산도시철도 1호선", "stationCode": "120", "date": "2021-02-26"}}, {"type": "Feature", "geometry": {"type": "Point", "coordinates": [129.071366, 35.173122]}, "properties": {"name": "양정역역", "address": "부산광역시 부산진구 중앙대로 지하 930", "line": "부산도시철도 1호선", "stationCode": "121", "date": "2021-02-26"}}, {"type": "Feature", "geometry": {"type": "Point", "coordinates": [129.076642, 35.179837]}, "properties": {"name": "시청역역", "address": "부산광역시 연제구 중앙대로 지하 1017", "line": "부산도시철도 1호선", "stationCode": "122", "date": "2021-02-26"}}, {"type": "Feature", "geometry": {"type": "Point", "coordinates": [129.081534, 35.186168]}, "properties": {"name": "연산역역", "address": "부산광역시 연제구 중앙대로 지하 1101", "line": "부산도시철도 1호선", "stationCode": "123", "date": "2021-02-26"}}, {"type": "Feature", "geometry": {"type": "Point", "coordinates": [129.080035, 35.19605]}, "properties": {"name": "교대역역", "address": "부산광역시 연제구 중앙대로 지하 1217", "line": "부산도시철도 1호선", "stationCode": "124", "date": "2021-02-26"}}, {"type": "Feature", "geometry": {"type": "Point", "coordinates": [129.078506, 35.205641]}, "properties": {"name": "동래역역", "address": "부산광역시 동래구 중앙대로 1324", "line": "부산도시철도 1호선", "stationCode": "125", "date": "2021-02-26"}}, {"type": "Feature", "geometry": {"type": "Point", "coordinates": [129.079659, 35.212551]}, "properties": {"name": "명륜역역", "address": "부산광역시 동래구 중앙대로 1414", "line": "부산도시철도 1호선", "stationCode": "126", "date": "2021-02-26"}}, {"type": "Feature", "geometry": {"type": "Point", "coordinates": [129.086437, 35.220249]}, "properties": {"name": "온천장역역", "address": "부산광역시 동래구 중앙대로 1520", "line": "부산도시철도 1호선", "stationCode": "127", "date": "2021-02-26"}}, {"type": "Feature", "geometry": {"type": "Point", "coordinates": [129.089358, 35.229609]}, "properties": {"name": "부산대역역", "address": "부산광역시 금정구 장전온천천로 48", "line": "부산도시철도 1호선", "stationCode": "128", "date": "2021-02-26"}}, {"type": "Feature", "geometry": {"type": "Point", "coordinates": [129.088111, 35.23809095]}, "properties": {"name": "장전역역", "address": "부산광역시 금정구 장전온천천로 144", "line": "부산도시철도 1호선", "stationCode": "129", "date": "2021-02-26"}}, {"type": "Feature", "geometry": {"type": "Point", "coordinates": [129.091327, 35.247407]}, "properties": {"name": "구서역역", "address": "부산광역시 금정구 금정로 233번길 46", "line": "부산도시철도 1호선", "stationCode": "130", "date": "2021-02-26"}}, {"type": "Feature", "geometry": {"type": "Point", "coordinates": [129.091386, 35.256959]}, "properties": {"name": "두실역역", "address": "부산광역시 금정구 중앙대로 지하 1927-1", "line": "부산도시철도 1호선", "stationCode": "131", "date": "2021-02-26"}}, {"type": "Feature", "geometry": {"type": "Point", "coordinates": [129.092496, 35.265404]}, "properties": {"name": "남산역역", "address": "부산광역시 금정구 중앙대로 지하 2019-1", "line": "부산도시철도 1호선", "stationCode": "132", "date": "2021-02-26"}}, {"type": "Feature", "geometry": {"type": "Point", "coordinates": [129.092679, 35.273105]}, "properties": {"name": "범어사역역", "address": "부산광역시 금정구 중앙대로 지하 2107", "line": "부산도시철도 1호선", "stationCode": "133", "date": "2021-02-26"}}, {"type": "Feature", "geometry": {"type": "Point", "coordinates": [129.094967, 35.28468657]}, "properties": {"name": "노포역역", "address": "부산광역시 금정구 중앙대로 2238", "line": "부산도시철도 1호선", "stationCode": "134", "date": "2021-02-26"}}, {"type": "Feature", "geometry": {"type": "Point", "coordinates": [129.176986, 35.169914]}, "properties": {"name": "장산역역", "address": "부산광역시 해운대구 해운대로 지하 820", "line": "부산도시철도 2호선", "stationCode": "201", "date": "2021-02-26"}}, {"type": "Feature", "geometry": {"type": "Point", "coordinates": [129.168604, 35.1667]}, "properties": {"name": "중동역역", "address": "부산광역시 해운대구 해운대로 지하 730", "line": "부산도시철도 2호선", "stationCode": "202", "date": "2021-02-26"}}, {"type": "Feature", "geometry": {"type": "Point", "coordinates": [129.158908, 35.163672]}, "properties": {"name": "해운대역역", "address": "부산광역시 해운대구 해운대로 지하 626", "line": "부산도시철도 2호선", "stationCode": "203", "date": "2021-02-26"}}, {"type": "Feature", "geometry": {"type": "Point", "coordinates": [129.147897, 35.161484]}, "properties": {"name": "동백역역", "address": "부산광역시 해운대구 해운대로 지하 522", "line": "부산도시철도 2호선", "stationCode": "204", "date": "2021-02-26"}}, {"type": "Feature", "geometry": {"type": "Point", "coordinates": [129.138933, 35.168844]}, "properties": {"name": "시립미술관역역", "address": "부산광역시 해운대구 해운대로 지하 396", "line": "부산도시철도 2호선", "stationCode": "205", "date": "2021-02-26"}}, {"type": "Feature", "geometry": {"type": "Point", "coordinates": [129.131745, 35.168827]}, "properties": {"name": "센텀시티역역", "address": "부산광역시 해운대구 센텀남대로 지하 76", "line": "부산도시철도 2호선", "stationCode": "206", "date": "2021-02-26"}}, {"type": "Feature", "geometry": {"type": "Point", "coordinates": [129.121909, 35.167228]}, "properties": {"name": "민락역역", "address": "부산광역시 수영구 수영로 지하 769", "line": "부산도시철도 2호선", "stationCode": "207", "date": "2021-02-26"}}, {"type": "Feature", "geometry": {"type": "Point", "coordinates": [129.114713, 35.165227]}, "properties": {"name": "수영역역", "address": "부산광역시 수영구 수영로 지하 677", "line": "부산도시철도 2호선", "stationCode": "208", "date": "2021-02-26"}}, {"type": "Feature", "geometry": {"type": "Point", "coordinates": [129.113168, 35.157916]}, "properties": {"name": "광안역역", "address": "부산광역시 수영구 수영로 지하 576", "line": "부산도시철도 2호선", "stationCode": "209", "date": "2021-02-26"}}, {"type": "Feature", "geometry": {"type": "Point", "coordinates": [129.110961, 35.149771]}, "properties": {"name": "금련산역역", "address": "부산광역시 수영구 수영로 지하 482", "line": "부산도시철도 2호선", "stationCode": "210", "date": "2021-02-26"}}, {"type": "Feature", "geometry": {"type": "Point", "coordinates": [129.107978, 35.142139]}, "properties": {"name": "남천역역", "address": "부산광역시 수영구 수영로 지하 410", "line": "부산도시철도 2호선", "stationCode": "211", "date": "2021-02-26"}}, {"type": "Feature", "geometry": {"type": "Point", "coordinates": [129.100548, 35.137585]}, "properties": {"name": "경성대부경대역역", "address": "부산광역시 남구 수영로 지하 324", "line": "부산도시철도 2호선", "stationCode": "212", "date": "2021-02-26"}}, {"type": "Feature", "geometry": {"type": "Point", "coordinates": [129.092161, 35.135153]}, "properties": {"name": "대연역역", "address": "부산광역시 남구 수영로 지하 242", "line": "부산도시철도 2호선", "stationCode": "213", "date": "2021-02-26"}}, {"type": "Feature", "geometry": {"type": "Point", "coordinates": [129.084415, 35.134731]}, "properties": {"name": "못골역역", "address": "부산광역시 남구 수영로 지하 170", "line": "부산도시철도 2호선", "stationCode": "214", "date": "2021-02-26"}}, {"type": "Feature", "geometry": {"type": "Point", "coordinates": [129.074365, 35.135574]}, "properties": {"name": "지게골역역", "address": "부산광역시 남구 수영로 지하 70", "line": "부산도시철도 2호선", "stationCode": "215", "date": "2021-02-26"}}, {"type": "Feature", "geometry": {"type": "Point", "coordinates": [129.067399, 35.139151]}, "properties": {"name": "문현역역", "address": "부산광역시 남구 전포대로 지하 17", "line": "부산도시철도 2호선", "stationCode": "216", "date": "2021-02-26"}}, {"type": "Feature", "geometry": {"type": "Point", "coordinates": [129.066755, 35.145817]}, "properties": {"name": "국제금융센터부산은행역역", "address": "부산광역시 남구 전포대로 지하 97", "line": "부산도시철도 2호선", "stationCode": "217", "date": "2021-02-26"}}, {"type": "Feature", "geometry": {"type": "Point", "coordinates": [129.065374, 35.153102]}, "properties": {"name": "전포역역", "address": "부산광역시 부산진구 전포대로 지하 181", "line": "부산도시철도 2호선", "stationCode": "218", "date": "2021-02-26"}}, {"type": "Feature", "geometry": {"type": "Point", "coordinates": [129.059084, 35.15774]}, "properties": {"name": "서면역(2호선)역", "address": "부산광역시 부산진구 중앙대로 지하 730", "line": "부산도시철도 2호선", "stationCode": "219", "date": "2021-02-26"}}, {"type": "Feature", "geometry": {"type": "Point", "coordinates": [129.050185, 35.157444]}, "properties": {"name": "부암역역", "address": "부산광역시 부산진구 가야대로 지하 719", "line": "부산도시철도 2호선", "stationCode": "220", "date": "2021-02-26"}}, {"type": "Feature", "geometry": {"type": "Point", "coordinates": [129.042817, 35.155883]}, "properties": {"name": "가야역역", "address": "부산광역시 부산진구 가야대로 지하 650", "line": "부산도시철도 2호선", "stationCode": "221", "date": "2021-02-26"}}, {"type": "Feature", "geometry": {"type": "Point", "coordinates": [129.03275, 35.153986]}, "properties": {"name": "동의대역역", "address": "부산광역시 부산진구 가야대로 지하 554", "line": "부산도시철도 2호선", "stationCode": "222", "date": "2021-02-26"}}, {"type": "Feature", "geometry": {"type": "Point", "coordinates": [129.020533, 35.153284]}, "properties": {"name": "개금역역", "address": "부산광역시 부산진구 가야대로 지하 442", "line": "부산도시철도 2호선", "stationCode": "223", "date": "2021-02-26"}}, {"type": "Feature", "geometry": {"type": "Point", "coordinates": [129.012255, 35.151254]}, "properties": {"name": "냉정역역", "address": "부산광역시 사상구 가야대로 지하 362-1", "line": "부산도시철도 2호선", "stationCode": "224", "date": "2021-02-26"}}, {"type": "Feature", "geometry": {"type": "Point", "coordinates": [129.003077, 35.150508]}, "properties": {"name": "주례역역", "address": "부산광역시 사상구 가야대로 지하 292", "line": "부산도시철도 2호선", "stationCode": "225", "date": "2021-02-26"}}, {"type": "Feature", "geometry": {"type": "Point", "coordinates": [128.991146, 35.155528]}, "properties": {"name": "감전역역", "address": "부산광역시 사상구 사상로 지하 93-1", "line": "부산도시철도 2호선", "stationCode": "226", "date": "2021-02-26"}}, {"type": "Feature", "geometry": {"type": "Point", "coordinates": [128.984621, 35.162361]}, "properties": {"name": "사상역역", "address": "부산광역시 사상구 사상로 지하 203", "line": "부산도시철도 2호선", "stationCode": "227", "date": "2021-02-26"}}, {"type": "Feature", "geometry": {"type": "Point", "coordinates": [128.983955, 35.173754]}, "properties": {"name": "덕포역역", "address": "부산광역시 사상구 사상로 지하 320-1", "line": "부산도시철도 2호선", "stationCode": "228", "date": "2021-02-26"}}, {"type": "Feature", "geometry": {"type": "Point", "coordinates": [128.985621, 35.180366]}, "properties": {"name": "모덕역역", "address": "부산광역시 사상구 사상로 지하 409", "line": "부산도시철도 2호선", "stationCode": "229", "date": "2021-02-26"}}, {"type": "Feature", "geometry": {"type": "Point", "coordinates": [128.988655, 35.189663]}, "properties": {"name": "모라역역", "address": "부산광역시 사상구 사상로 지하 498", "line": "부산도시철도 2호선", "stationCode": "230", "date": "2021-02-26"}}, {"type": "Feature", "geometry": {"type": "Point", "coordinates": [128.994928, 35.196804]}, "properties": {"name": "구남역역", "address": "부산광역시 북구 백양대로 지하 1026", "line": "부산도시철도 2호선", "stationCode": "231", "date": "2021-02-26"}}, {"type": "Feature", "geometry": {"type": "Point", "coordinates": [128.999322, 35.20252]}, "properties": {"name": "구명역역", "address": "부산광역시 북구 백양대로 지하 1094", "line": "부산도시철도 2호선", "stationCode": "232", "date": "2021-02-26"}}, {"type": "Feature", "geometry": {"type": "Point", "coordinates": [129.005673, 35.210219]}, "properties": {"name": "덕천역(2호선)역", "address": "부산광역시 북구 금곡대로 지하 14", "line": "부산도시철도 2호선", "stationCode": "233", "date": "2021-02-26"}}, {"type": "Feature", "geometry": {"type": "Point", "coordinates": [129.009198, 35.223356]}, "properties": {"name": "수정역역", "address": "부산광역시 북구 금곡대로 지하 160", "line": "부산도시철도 2호선", "stationCode": "234", "date": "2021-02-26"}}, {"type": "Feature", "geometry": {"type": "Point", "coordinates": [129.013918, 35.236278]}, "properties": {"name": "화명역역", "address": "부산광역시 북구 금곡대로 지하 311", "line": "부산도시철도 2호선", "stationCode": "235", "date": "2021-02-26"}}, {"type": "Feature", "geometry": {"type": "Point", "coordinates": [129.012918, 35.246714]}, "properties": {"name": "율리역역", "address": "부산광역시 북구 금곡대로 지하 440", "line": "부산도시철도 2호선", "stationCode": "236", "date": "2021-02-26"}}, {"type": "Feature", "geometry": {"type": "Point", "coordinates": [129.012392, 35.258656]}, "properties": {"name": "동원역역", "address": "부산광역시 북구 금곡대로 575", "line": "부산도시철도 2호선", "stationCode": "237", "date": "2021-02-26"}}, {"type": "Feature", "geometry": {"type": "Point", "coordinates": [129.0169054, 35.267248]}, "properties": {"name": "금곡역역", "address": "부산광역시 북구 금곡대로 685", "line": "부산도시철도 2호선", "stationCode": "238", "date": "2021-02-26"}}, {"type": "Feature", "geometry": {"type": "Point", "coordinates": [129.017097, 35.280406]}, "properties": {"name": "호포역역", "address": "경상남도 양산시 동면 양산대로 62", "line": "부산도시철도 2호선", "stationCode": "239", "date": "2021-02-26"}}, {"type": "Feature", "geometry": {"type": "Point", "coordinates": [129.010246, 35.308302]}, "properties": {"name": "증산역역", "address": "경상남도 양산시 물금읍 메기로 168", "line": "부산도시철도 2호선", "stationCode": "240", "date": "2021-02-26"}}, {"type": "Feature", "geometry": {"type": "Point", "coordinates": [129.0139408, 35.316955]}, "properties": {"name": "부산대양산캠퍼스역역", "address": "경상남도 양산시 물금읍 메기로 270", "line": "부산도시철도 2호선", "stationCode": "241", "date": "2021-02-26"}}, {"type": "Feature", "geometry": {"type": "Point", "coordinates": [129.019457, 35.325359]}, "properties": {"name": "남양산역역", "address": "경상남도 양산시 동면 메기로 380", "line": "부산도시철도 2호선", "stationCode": "242", "date": "2021-02-26"}}, {"type": "Feature", "geometry": {"type": "Point", "coordinates": [129.026391, 35.33872773]}, "properties": {"name": "양산역역", "address": "경상남도 양산시 강변로 441", "line": "부산도시철도 2호선", "stationCode": "243", "date": "2021-02-26"}}, {"type": "Feature", "geometry": {"type": "Point", "coordinates": [129.11459, 35.167753]}, "properties": {"name": "수영역(3호선)역", "address": "부산광역시 수영구 수영로 지하 677", "line": "부산도시철도 3호선", "stationCode": "301", "date": "2021-02-26"}}, {"type": "Feature", "geometry": {"type": "Point", "coordinates": [129.108225, 35.171528]}, "properties": {"name": "망미역역", "address": "부산광역시 수영구 연수로 지하 337", "line": "부산도시철도 3호선", "stationCode": "302", "date": "2021-02-26"}}, {"type": "Feature", "geometry": {"type": "Point", "coordinates": [129.095498, 35.173504]}, "properties": {"name": "배산역역", "address": "부산광역시 연제구 연수로 지하 229", "line": "부산도시철도 3호선", "stationCode": "303", "date": "2021-02-26"}}, {"type": "Feature", "geometry": {"type": "Point", "coordinates": [129.085748, 35.176808]}, "properties": {"name": "물만골역역", "address": "부산광역시 연제구 월드컵대로 지하 23", "line": "부산도시철도 3호선", "stationCode": "304", "date": "2021-02-26"}}, {"type": "Feature", "geometry": {"type": "Point", "coordinates": [129.081526, 35.186173]}, "properties": {"name": "연산역(3호선)역", "address": "부산광역시 연제구 중앙대로 지하 1101", "line": "부산도시철도 3호선", "stationCode": "305", "date": "2021-02-26"}}, {"type": "Feature", "geometry": {"type": "Point", "coordinates": [129.073941, 35.188589]}, "properties": {"name": "거제역역", "address": "부산광역시 연제구 월드컵대로 지하 209", "line": "부산도시철도 3호선", "stationCode": "306", "date": "2021-02-26"}}, {"type": "Feature", "geometry": {"type": "Point", "coordinates": [129.067504, 35.19125]}, "properties": {"name": "종합운동장역역", "address": "부산광역시 연제구 아시아드대로 지하 73", "line": "부산도시철도 3호선", "stationCode": "307", "date": "2021-02-26"}}, {"type": "Feature", "geometry": {"type": "Point", "coordinates": [129.064996, 35.198998]}, "properties": {"name": "사직역역", "address": "부산광역시 동래구 아시아드대로 지하 153", "line": "부산도시철도 3호선", "stationCode": "308", "date": "2021-02-26"}}, {"type": "Feature", "geometry": {"type": "Point", "coordinates": [129.068061, 35.205503]}, "properties": {"name": "미남역(3호선)역", "address": "부산광역시 동래구 아시아드대로 지하 232", "line": "부산도시철도 3호선", "stationCode": "309", "date": "2021-02-26"}}, {"type": "Feature", "geometry": {"type": "Point", "coordinates": [129.036527, 35.213]}, "properties": {"name": "만덕역역", "address": "부산광역시 북구 만덕대로 지하 291", "line": "부산도시철도 3호선", "stationCode": "310", "date": "2021-02-26"}}, {"type": "Feature", "geometry": {"type": "Point", "coordinates": [129.023928, 35.21334]}, "properties": {"name": "남산정역역", "address": "부산광역시 북구 만덕대로 지하 179", "line": "부산도시철도 3호선", "stationCode": "311", "date": "2021-02-26"}}, {"type": "Feature", "geometry": {"type": "Point", "coordinates": [129.012749, 35.21197]}, "properties": {"name": "숙등역역", "address": "부산광역시 북구 만덕대로 지하 79", "line": "부산도시철도 3호선", "stationCode": "312", "date": "2021-02-26"}}, {"type": "Feature", "geometry": {"type": "Point", "coordinates": [129.005671, 35.210215]}, "properties": {"name": "덕천역(3호선)역", "address": "부산광역시 북구 금곡대로 지하 14", "line": "부산도시철도 3호선", "stationCode": "313", "date": "2021-02-26"}}, {"type": "Feature", "geometry": {"type": "Point", "coordinates": [128.996366, 35.206697]}, "properties": {"name": "구포역역", "address": "부산광역시 북구 낙동대로 1697", "line": "부산도시철도 3호선", "stationCode": "314", "date": "2021-02-26"}}, {"type": "Feature", "geometry": {"type": "Point", "coordinates": [128.981756, 35.211247]}, "properties": {"name": "강서구청역역", "address": "부산광역시 강서구 낙동북로 485", "line": "부산도시철도 3호선", "stationCode": "315", "date": "2021-02-26"}}, {"type": "Feature", "geometry": {"type": "Point", "coordinates": [128.9696515, 35.212577]}, "properties": {"name": "체육공원역역", "address": "부산광역시 강서구 낙동북로 371", "line": "부산도시철도 3호선", "stationCode": "316", "date": "2021-02-26"}}, {"type": "Feature", "geometry": {"type": "Point", "coordinates": [128.9610488, 35.213386]}, "properties": {"name": "대저역역", "address": "부산광역시 강서구 낙동북로 295", "line": "부산도시철도 3호선", "stationCode": "317", "date": "2021-02-26"}}, {"type": "Feature", "geometry": {"type": "Point", "coordinates": [129.069172, 35.207116]}, "properties": {"name": "미남역(4호선)역", "address": "부산광역시 동래구 아시아드대로 지하 232", "line": "부산도시철도 4호선", "stationCode": "401", "date": "2021-02-26"}}, {"type": "Feature", "geometry": {"type": "Point", "coordinates": [129.077082, 35.204834]}, "properties": {"name": "동래역(4호선)역", "address": "부산광역시 동래구 충렬대로 지하 147", "line": "부산도시철도 4호선", "stationCode": "402", "date": "2021-02-26"}}, {"type": "Feature", "geometry": {"type": "Point", "coordinates": [129.083806, 35.201828]}, "properties": {"name": "수안역역", "address": "부산광역시 동래구 충렬대로 지하 223", "line": "부산도시철도 4호선", "stationCode": "403", "date": "2021-02-26"}}, {"type": "Feature", "geometry": {"type": "Point", "coordinates": [129.090774, 35.200254]}, "properties": {"name": "낙민역역", "address": "부산광역시 동래구 충렬대로 지하 285", "line": "부산도시철도 4호선", "stationCode": "404", "date": "2021-02-26"}}, {"type": "Feature", "geometry": {"type": "Point", "coordinates": [129.097636, 35.199859]}, "properties": {"name": "충렬사역역", "address": "부산광역시 동래구 반송로 지하 205", "line": "부산도시철도 4호선", "stationCode": "405", "date": "2021-02-26"}}, {"type": "Feature", "geometry": {"type": "Point", "coordinates": [129.101517, 35.205143]}, "properties": {"name": "명장역역", "address": "부산광역시 동래구 반송로 지하 281", "line": "부산도시철도 4호선", "stationCode": "406", "date": "2021-02-26"}}, {"type": "Feature", "geometry": {"type": "Point", "coordinates": [129.107683, 35.213333]}, "properties": {"name": "서동역역", "address": "부산광역시 금정구 반송로 지하 387", "line": "부산도시철도 4호선", "stationCode": "407", "date": "2021-02-26"}}, {"type": "Feature", "geometry": {"type": "Point", "coordinates": [129.115153, 35.215829]}, "properties": {"name": "금사역역", "address": "부산광역시 금정구 반송로 지하 465", "line": "부산도시철도 4호선", "stationCode": "408", "date": "2021-02-26"}}, {"type": "Feature", "geometry": {"type": "Point", "coordinates": [129.124061, 35.217779]}, "properties": {"name": "반여농산물시장역역", "address": "부산광역시 해운대구 반송로 550", "line": "부산도시철도 4호선", "stationCode": "409", "date": "2021-02-26"}}, {"type": "Feature", "geometry": {"type": "Point", "coordinates": [129.137179, 35.21811162]}, "properties": {"name": "석대역역", "address": "부산광역시 해운대구 석대천로 121", "line": "부산도시철도 4호선", "stationCode": "410", "date": "2021-02-26"}}, {"type": "Feature", "geometry": {"type": "Point", "coordinates": [129.146149, 35.225777]}, "properties": {"name": "영산대역역", "address": "부산광역시 해운대구 반송로 803", "line": "부산도시철도 4호선", "stationCode": "411", "date": "2021-02-26"}}, {"type": "Feature", "geometry": {"type": "Point", "coordinates": [129.154024, 35.232506]}, "properties": {"name": "윗반송역역", "address": "부산광역시 해운대구 반송로 917", "line": "부산도시철도 4호선", "stationCode": "412", "date": "2021-02-26"}}, {"type": "Feature", "geometry": {"type": "Point", "coordinates": [129.1604437, 35.236031]}, "properties": {"name": "고촌역역", "address": "부산광역시 기장군 철마면 반송로 991", "line": "부산도시철도 4호선", "stationCode": "413", "date": "2021-02-26"}}, {"type": "Feature", "geometry": {"type": "Point", "coordinates": [129.171823, 35.237363]}, "properties": {"name": "안평역역", "address": "부산광역시 기장군 철마면 반송로 1101", "line": "부산도시철도 4호선", "stationCode": "414", "date": "2021-02-26"}}]}